NORAD_CAT_ID,OBJECT_NAME,OBJECT_TYPE,EPOCH,MEAN_MOTION,ECCENTRICITY,INCLINATION,RA_OF_ASC_NODE,ARG_OF_PERICENTER,MEAN_ANOMALY,BSTAR,MEAN_MOTION_DOT,MEAN_MOTION_DDOT,TLE_LINE0,TLE_LINE1,TLE_LINE2,SEMIMAJOR_AXIS,PERIOD,APOGEE,PERIGEE,DECAYED
52566.0,STARLINK-3938,PAYLOAD,2022-10-22 08:29:00,15.08847543,0.0001958,53.219,275.2726,61.5455,298.5734,0.00012643,1.725e-05,0.0,0 STARLINK-3938,1 52566U 22051AK  22295.35347524  .00001725  00000-0  12643-3 0  9991,2 52566  53.2190 275.2726 0001958  61.5455 298.5734 15.08847543 25107,6917.857,95.437,541.077,538.368,0.0
52566.0,STARLINK-3938,PAYLOAD,2022-10-23 05:09:01,15.08842459,0.0001947,53.2187,271.4064,61.5362,298.5826,0.00010562,1.393e-05,0.0,0 STARLINK-3938,1 52566U 22051AK  22296.21459707  .00001393  00000-0  10562-3 0  9993,2 52566  53.2187 271.4064 0001947  61.5362 298.5826 15.08842459 25238,6917.873000000001,95.437,541.085,538.391,0.0
52566.0,STARLINK-3938,PAYLOAD,2022-10-23 08:19:47,15.08848241,0.0001947,53.2187,270.8114,61.7877,298.3312,0.00015194,2.131e-05,0.0,0 STARLINK-3938,1 52566U 22051AK  22296.34707356  .00002131  00000-0  15194-3 0  9990,2 52566  53.2187 270.8114 0001947  61.7877 298.3312 15.08848241 25187,6917.855,95.437,541.067,538.373,0.0
52566.0,STARLINK-3938,PAYLOAD,2022-10-24 01:49:00,15.08856328,0.0001727,53.2181,267.5398,68.581,291.5367,0.00024176,3.563e-05,0.0,0 STARLINK-3938,1 52566U 22051AK  22297.07570484  .00003563  00000-0  24176-3 0  9991,2 52566  53.2181 267.5398 0001727  68.5810 291.5367 15.08856328 25366,6917.83,95.437,540.89,538.501,0.0
52566.0,STARLINK-3938,PAYLOAD,2022-10-24 08:10:33,15.08845284,0.0001735,53.2179,266.3528,53.0933,307.0218,7.2111e-05,8.599999999999999e-06,0.0,0 STARLINK-3938,1 52566U 22051AK  22297.34066951  .00000860  00000-0  72111-4 0  9990,2 52566  53.2179 266.3528 0001735  53.0933 307.0218 15.08845284 25333,6917.864000000001,95.437,540.929,538.529,0.0
52566.0,STARLINK-3938,PAYLOAD,2022-10-24 14:32:07,15.08827165,0.0002179,53.2205,265.1625,48.2375,311.8803,-0.00017093,-3.007e-05,0.0,0 STARLINK-3938,1 52566U 22051AK  22297.60564117 -.00003007  00000-0 -17093-3 0  9991,2 52566  53.2205 265.1625 0002179  48.2375 311.8803 15.08827165 25372,6917.92,95.438,541.2919999999998,538.2769999999998,0.0
52566.0,STARLINK-3938,PAYLOAD,2022-10-25 04:50:37,15.08821533,0.0001833,53.2193,262.4906,49.8788,310.2365,-0.00021277,-3.671e-05,0.0,0 STARLINK-3938,1 52566U 22051AK  22298.20182051 -.00003671  00000-0 -21277-3 0  9997,2 52566  53.2193 262.4906 0001833  49.8788 310.2365 15.08821533 25538,6917.937,95.439,541.07,538.534,0.0
52566.0,STARLINK-3938,PAYLOAD,2022-10-25 06:26:00,15.08820733,0.000165,53.2193,262.1923,57.6406,302.4745,-0.00018308,-3.199e-05,0.0,0 STARLINK-3938,1 52566U 22051AK  22298.26806111 -.00003199  00000-0 -18308-3 0  9999,2 52566  53.2193 262.1923 0001650  57.6406 302.4745 15.08820733 25474,6917.939,95.439,540.946,538.663,0.0
52566.0,STARLINK-3938,PAYLOAD,2022-10-25 20:44:27,15.08839594,0.0001682,53.2188,259.5147,43.4498,316.6626,2.7839e-05,1.55e-06,0.0,0 STARLINK-3938,1 52566U 22051AK  22298.86420399  .00000155  00000-0  27839-4 0  9992,2 52566  53.2188 259.5147 0001682  43.4498 316.6626 15.08839594 25565,6917.882,95.438,540.91,538.5830000000002,0.0
52566.0,STARLINK-3938,PAYLOAD,2022-10-26 04:41:22,15.08846165,0.0001715,53.2188,258.0282,46.1515,313.9619,0.00013474,1.857e-05,0.0,0 STARLINK-3938,1 52566U 22051AK  22299.19539793  .00001857  00000-0  13474-3 0  9997,2 52566  53.2188 258.0282 0001715  46.1515 313.9619 15.08846165 25683,6917.861999999999,95.437,540.913,538.54,0.0
52566.0,STARLINK-3938,PAYLOAD,2022-10-26 07:52:08,15.08844526,0.0001865,53.2188,257.4348,38.6733,321.4392,9.5676e-05,1.235e-05,0.0,0 STARLINK-3938,1 52566U 22051AK  22299.32788068  .00001235  00000-0  95676-4 0  9998,2 52566  53.2188 257.4348 0001865  38.6733 321.4392 15.08844526 25639,6917.8669999999975,95.437,541.0219999999998,538.441,0.0
52566.0,STARLINK-3938,PAYLOAD,2022-10-27 06:07:33,15.08830018,0.0001847,53.2191,253.272,46.404,313.7105,0.00023999,3.532e-05,0.0,0 STARLINK-3938,1 52566U 22051AK  22300.25525433  .00003532  00000-0  23999-3 0  9998,2 52566  53.2191 253.2720 0001847  46.4040 313.7105 15.08830018 25849,6917.911,95.438,541.054,538.498,0.0
52566.0,STARLINK-3938,PAYLOAD,2022-10-27 07:42:57,15.08831145,0.0001788,53.2191,252.9739,47.6847,312.4296,0.00024062,3.543e-05,0.0,0 STARLINK-3938,1 52566U 22051AK  22300.32149485  .00003543  00000-0  24062-3 0  9999,2 52566  53.2191 252.9739 0001788  47.6847 312.4296 15.08831145 25789,6917.906999999997,95.438,541.009,538.536,0.0
52566.0,STARLINK-3938,PAYLOAD,2022-10-27 14:04:29,15.08835996,0.0001623,53.2191,251.7843,46.0241,314.0885,0.00024794,3.66e-05,0.0,0 STARLINK-3938,1 52566U 22051AK  22300.58645078  .00003660  00000-0  24794-3 0  9998,2 52566  53.2191 251.7843 0001623  46.0241 314.0885 15.08835996 25826,6917.893,95.438,540.88,538.635,0.0
52566.0,STARLINK-3938,PAYLOAD,2022-10-28 04:22:55,15.08874114,0.0001682,53.219,249.1076,48.1771,311.9365,-0.00018226,-3.19e-05,0.0,0 STARLINK-3938,1 52566U 22051AK  22301.18258976 -.00003190  00000-0 -18226-3 0  9995,2 52566  53.2190 249.1076 0001682  48.1771 311.9365 15.08874114 25914,6917.776,95.435,540.805,538.4780000000002,0.0
52566.0,STARLINK-3938,PAYLOAD,2022-10-28 20:16:48,15.0884533,0.0001805,53.2199,246.1349,51.3054,308.8099,4.1666e-05,3.75e-06,0.0,0 STARLINK-3938,1 52566U 22051AK  22301.84500255  .00000375  00000-0  41666-4 0  9993,2 52566  53.2199 246.1349 0001805  51.3054 308.8099 15.08845330 26019,6917.864000000001,95.437,540.9780000000002,538.48,0.0
52566.0,STARLINK-3938,PAYLOAD,2022-10-29 02:38:20,15.08840791,0.0001740999999999,53.2191,244.9443,55.2524,304.8632,8.2269e-05,1.022e-05,0.0,0 STARLINK-3938,1 52566U 22051AK  22302.10996248  .00001022  00000-0  82269-4 0  9998,2 52566  53.2191 244.9443 0001741  55.2524 304.8632 15.08840791 26055,6917.878000000002,95.438,540.947,538.539,0.0
52566.0,STARLINK-3938,PAYLOAD,2022-10-29 20:07:34,15.08855118,0.0001931,53.2205,241.6704,69.128,290.9919,7.1417e-05,8.49e-06,0.0,0 STARLINK-3938,1 52566U 22051AK  22302.83859087  .00000849  00000-0  71417-4 0  9996,2 52566  53.2205 241.6704 0001931  69.1280 290.9919 15.08855118 26163,6917.834,95.437,541.035,538.363,0.0
52566.0,STARLINK-3938,PAYLOAD,2022-10-30 02:29:07,15.08839582,0.0001802,53.2197,240.4833,56.5328,303.5837,4.1822e-05,3.78e-06,0.0,0 STARLINK-3938,1 52566U 22051AK  22303.10355914  .00000378  00000-0  41822-4 0  9991,2 52566  53.2197 240.4833 0001802  56.5328 303.5837 15.08839582 26205,6917.882,95.438,540.993,538.5,0.0
52566.0,STARLINK-3938,PAYLOAD,2022-10-30 19:58:22,15.08836342,0.0001786999999999,53.2203,237.2142,53.8996,306.2161,2.7395e-05,1.48e-06,0.0,0 STARLINK-3938,1 52566U 22051AK  22303.83220284  .00000148  00000-0  27395-4 0  9996,2 52566  53.2203 237.2142 0001787  53.8996 306.2161 15.08836342 26316,6917.892,95.438,540.993,538.52,0.0
52566.0,STARLINK-3938,PAYLOAD,2022-10-31 05:30:40,15.08852043,0.0001815,53.2189,235.4296,55.6191,304.4972,9.0557e-05,1.154e-05,0.0,0 STARLINK-3938,1 52566U 22051AK  22304.22963218  .00001154  00000-0  90557-4 0  9999,2 52566  53.2189 235.4296 0001815  55.6191 304.4972 15.08852043 26448,6917.844,95.437,540.964,538.453,0.0
52566.0,STARLINK-3938,PAYLOAD,2022-11-01 03:46:04,15.08838001,0.0001724,53.2181,231.2665,48.0997,312.0142,7.5399e-05,9.12e-06,0.0,0 STARLINK-3938,1 52566U 22051AK  22305.15699948  .00000912  00000-0  75399-4 0  9996,2 52566  53.2181 231.2665 0001724  48.0997 312.0142 15.08838001 26580,6917.886,95.438,540.944,538.559,0.0
52566.0,STARLINK-3938,PAYLOAD,2022-11-01 19:39:56,15.08835069,0.0001729,53.2195,228.2935,49.5837,310.5306,-6.3397e-05,-1.297e-05,0.0,0 STARLINK-3938,1 52566U 22051AK  22305.81940818 -.00001297  00000-0 -63397-4 0  9998,2 52566  53.2195 228.2935 0001729  49.5837 310.5306 15.08835069 26682,6917.895,95.438,540.957,538.564,0.0
52566.0,STARLINK-3938,PAYLOAD,2022-11-02 11:33:48,15.08830501,0.0001864,53.2202,225.3189,51.5861,308.5298,-6.4133e-05,-1.308e-05,0.0,0 STARLINK-3938,1 52566U 22051AK  22306.48181249 -.00001308  00000-0 -64133-4 0  9999,2 52566  53.2202 225.3189 0001864  51.5861 308.5298 15.08830501 26717,6917.909000000002,95.438,541.064,538.485,0.0
52566.0,STARLINK-3938,PAYLOAD,2022-11-02 19:30:45,15.08815615,0.0002214,53.2204,223.8325,50.9056,309.2133,-6.1726e-05,-1.27e-05,0.0,0 STARLINK-3938,1 52566U 22051AK  22306.81302519 -.00001270  00000-0 -61726-4 0  9994,2 52566  53.2204 223.8325 0002214  50.9056 309.2133 15.08815615 26831,6917.955,95.439,541.352,538.288,0.0
52566.0,STARLINK-3938,PAYLOAD,2022-11-03 03:27:40,15.08822961,0.0001922,53.2196,222.347,49.4531,310.6629,3.4406e-06,-2.33e-06,0.0,0 STARLINK-3938,1 52566U 22051AK  22307.14422278 -.00000233  00000-0  34406-5 0  9999,2 52566  53.2196 222.3470 0001922  49.4531 310.6629 15.08822961 26885,6917.932,95.439,541.127,538.4680000000002,0.0
52566.0,STARLINK-3938,PAYLOAD,2022-11-03 05:03:03,15.0882526,0.0001958,53.2198,222.0488,50.6383,309.4783,2.1463e-05,5.3e-07,0.0,0 STARLINK-3938,1 52566U 22051AK  22307.21046157  .00000053  00000-0  21463-4 0  9992,2 52566  53.2198 222.0488 0001958  50.6383 309.4783 15.08825260 26827,6917.925,95.438,541.145,538.436,0.0
52566.0,STARLINK-3938,PAYLOAD,2022-11-03 19:21:30,15.08846215,0.0001844,53.2192,219.3737,49.1298,310.9854,0.00020951,3.048e-05,0.0,0 STARLINK-3938,1 52566U 22051AK  22307.80660508  .00003048  00000-0  20951-3 0  9996,2 52566  53.2192 219.3737 0001844  49.1298 310.9854 15.08846215 26985,6917.861,95.437,541.002,538.451,0.0
52566.0,STARLINK-3938,PAYLOAD,2022-11-04 03:18:25,15.08855888,0.0001872,53.2196,217.886,52.9085,307.2078,0.00027093,4.028e-05,0.0,0 STARLINK-3938,1 52566U 22051AK  22308.13779518  .00004028  00000-0  27093-3 0  9998,2 52566  53.2196 217.8860 0001872  52.9085 307.2078 15.08855888 27036,6917.831999999999,95.437,540.992,538.4019999999998,0.0
